[{"OBJECT_NAME":"MACSAT (FINCH 1)","OBJECT_ID":"2023-155J","EPOCH":"2026-03-09T18:08:25.338048","MEAN_MOTION":15.19694714,"ECCENTRICITY":0.00037335,"INCLINATION":97.5815,"RA_OF_ASC_NODE":150.2689,"ARG_OF_PERICENTER":71.2233,"MEAN_ANOMALY":288.9406,"EPHEMERIS_TYPE":0,"CLASSIFICATION_TYPE":"U","NORAD_CAT_ID":58024,"ELEMENT_SET_NO":999,"REV_AT_EPOCH":13322,"BSTAR":0.00027017053,"MEAN_MOTION_DOT":5.699e-5,"MEAN_MOTION_DDOT":0},{"OBJECT_NAME":"CONNECTA IOT-14","OBJECT_ID":"2026-004AQ","EPOCH":"2026-03-09T22:44:46.185792","MEAN_MOTION":15.17901608,"ECCENTRICITY":0.00089335,"INCLINATION":97.4512,"RA_OF_ASC_NODE":69.4576,"ARG_OF_PERICENTER":336.151,"MEAN_ANOMALY":23.9308,"EPHEMERIS_TYPE":0,"CLASSIFICATION_TYPE":"U","NORAD_CAT_ID":67401,"ELEMENT_SET_NO":999,"REV_AT_EPOCH":870,"BSTAR":0.00024848153,"MEAN_MOTION_DOT":4.975e-5,"MEAN_MOTION_DDOT":0}]
